GLOBALSTAR M001         
1 25162U 98008A   25186.53158036 -.00000077  00000+0  15050-3 0  9992
2 25162  52.0037 279.8328 0000959 276.6794 201.5488 12.38214273245987
GLOBALSTAR M002         
1 25164U 98008C   25186.32340322 -.00000040  00000+0  72612-3 0  9999
2 25164  51.9976 194.7307 0001445 192.8971 167.1812 11.61510774186171
GLOBALSTAR M003         
1 25165U 98008D   25186.19799543 -.00000133  00000+0 -46128-3 0  9995
2 25165  51.9978 118.6420 0008271 332.8206 169.4214 12.12072885235401
GLOBALSTAR M014         
1 25306U 98023A   25186.32608066 -.00000081  00000+0 -59805-4 0  9992
2 25306  51.9832 117.5661 0001515  27.3620 119.6792 11.65481466193285
GLOBALSTAR M006         
1 25307U 98023B   25186.36053881 -.00000053  00000+0  46143-3 0  9994
2 25307  51.9905 170.6310 0002855 139.0889  10.1398 11.58176688218930
GLOBALSTAR M015         
1 25308U 98023C   25186.50913242 -.00000082  00000+0 -18884-3 0  9991
2 25308  51.9820 269.5744 0012790 109.7126  10.6232 11.48860079196180
